start=new Date('2022-05-09T00:00:00.000Z').valueOf();
sats=[{"MEAN_ELEMENT_THEORY":"SGP4","CLASSIFICATION_TYPE":"U","NORAD_CAT_ID":"44732","SITE":"AFETR","COUNTRY_CODE":"US","EPOCH":"2022-05-08T10:14:47.464800","APOAPSIS":"548.341","FILE":"3435746","REF_FRAME":"TEME","SEMIMAJOR_AXIS":"6925.376","OBJECT_ID":"2019-074V","OBJECT_NAME":"STARLINK-1027","ECCENTRICITY":"0.00015880","ELEMENT_SET_NO":"999","PERIAPSIS":"546.141","TLE_LINE2":"2 44732  53.0557  17.1261 0001588  65.7252 294.3902 15.06390966137267","REV_AT_EPOCH":"13726","EPHEMERIS_TYPE":"0","ARG_OF_PERICENTER":"65.7252","MEAN_MOTION":"15.06390966","MEAN_ANOMALY":"294.3902","LAUNCH_DATE":"2019-11-11","MEAN_MOTION_DDOT":"0.0000000000000","DECAY_DATE":null,"TLE_LINE1":"1 44732U 19074V   22128.42693825  .00000711  00000-0  66674-4 0  9997","TIME_SYSTEM":"UTC","OBJECT_TYPE":"PAYLOAD","BSTAR":"0.00006667400000","PERIOD":"95.593","RA_OF_ASC_NODE":"17.1261","MEAN_MOTION_DOT":"0.00000711","CENTER_NAME":"EARTH","GP_ID":"203014555","INCLINATION":"53.0557","RCS_SIZE":"LARGE"},{"REV_AT_EPOCH":"13753","TLE_LINE2":"2 44733  53.0554 357.4383 0001669  71.4218 288.6952 15.06398295137530","PERIAPSIS":"546.063","ELEMENT_SET_NO":"999","ECCENTRICITY":"0.00016690","OBJECT_NAME":"STARLINK-1028","OBJECT_ID":"2019-074W","SEMIMAJOR_AXIS":"6925.354","REF_FRAME":"TEME","FILE":"3435746","APOAPSIS":"548.375","EPOCH":"2022-05-08T08:36:35.836704","COUNTRY_CODE":"US","SITE":"AFETR","NORAD_CAT_ID":"44733","CLASSIFICATION_TYPE":"U","MEAN_ELEMENT_THEORY":"SGP4","RCS_SIZE":"LARGE","INCLINATION":"53.0554","GP_ID":"203013303","CENTER_NAME":"EARTH","MEAN_MOTION_DOT":"0.00001052","PERIOD":"95.592","RA_OF_ASC_NODE":"357.4383","OBJECT_TYPE":"PAYLOAD","BSTAR":"0.00008953500000","TIME_SYSTEM":"UTC","TLE_LINE1":"1 44733U 19074W   22128.35874811  .00001052  00000-0  89535-4 0  9996","DECAY_DATE":null,"MEAN_MOTION_DDOT":"0.0000000000000","LAUNCH_DATE":"2019-11-11","MEAN_ANOMALY":"288.6952","MEAN_MOTION":"15.06398295","ARG_OF_PERICENTER":"71.4218","EPHEMERIS_TYPE":"0"},{"ELEMENT_SET_NO":"999","PERIAPSIS":"546.098","OBJECT_NAME":"STARLINK-1029","ECCENTRICITY":"0.00015930","TLE_LINE2":"2 44734  53.0544 275.8877 0001593  69.0856 291.0303 15.06404124138851","REV_AT_EPOCH":"13885","FILE":"3435886","EPOCH":"2022-05-08T16:55:31.618848","APOAPSIS":"548.304","SEMIMAJOR_AXIS":"6925.336","OBJECT_ID":"2019-074X","REF_FRAME":"TEME","SITE":"AFETR","COUNTRY_CODE":"US","MEAN_ELEMENT_THEORY":"SGP4","NORAD_CAT_ID":"44734","CLASSIFICATION_TYPE":"U","CENTER_NAME":"EARTH","MEAN_MOTION_DOT":"0.00004351","PERIOD":"95.592","RA_OF_ASC_NODE":"275.8877","INCLINATION":"53.0544","GP_ID":"203022214","RCS_SIZE":"LARGE","TLE_LINE1":"1 44734U 19074X   22128.70522707  .00004351  00000-0  31079-3 0  9994","TIME_SYSTEM":"UTC","DECAY_DATE":null,"OBJECT_TYPE":"PAYLOAD","BSTAR":"0.00031079000000","MEAN_MOTION":"15.06404124","LAUNCH_DATE":"2019-11-11","MEAN_MOTION_DDOT":"0.0000000000000","MEAN_ANOMALY":"291.0303","EPHEMERIS_TYPE":"0","ARG_OF_PERICENTER":"69.0856"},{"REF_FRAME":"TEME","OBJECT_ID":"2019-074Y","SEMIMAJOR_AXIS":"6925.388","EPOCH":"2022-05-08T16:47:32.948160","APOAPSIS":"548.431","FILE":"3435886","TLE_LINE2":"2 44735  53.0580  15.9017 0001701  62.1590 297.9571 15.06387091137473","REV_AT_EPOCH":"13747","ECCENTRICITY":"0.00017010","OBJECT_NAME":"STARLINK-1030","PERIAPSIS":"546.075","ELEMENT_SET_NO":"999","NORAD_CAT_ID":"44735","CLASSIFICATION_TYPE":"U","MEAN_ELEMENT_THEORY":"SGP4","COUNTRY_CODE":"US","SITE":"AFETR","BSTAR":"0.00019132000000","OBJECT_TYPE":"PAYLOAD","DECAY_DATE":null,"TIME_SYSTEM":"UTC","TLE_LINE1":"1 44735U 19074Y   22128.69968690  .00002568  00000-0  19132-3 0  9992","RCS_SIZE":"LARGE","INCLINATION":"53.0580","GP_ID":"203022664","MEAN_MOTION_DOT":"0.00002568","PERIOD":"95.593","RA_OF_ASC_NODE":"15.9017","CENTER_NAME":"EARTH","ARG_OF_PERICENTER":"62.1590","EPHEMERIS_TYPE":"0","MEAN_MOTION_DDOT":"0.0000000000000","LAUNCH_DATE":"2019-11-11","MEAN_ANOMALY":"297.9571","MEAN_MOTION":"15.06387091"},{"EPHEMERIS_TYPE":"0","ARG_OF_PERICENTER":"60.4898","MEAN_MOTION":"15.06399184","MEAN_ANOMALY":"299.6244","LAUNCH_DATE":"2019-11-11","MEAN_MOTION_DDOT":"0.0000000000000","DECAY_DATE":null,"TLE_LINE1":"1 44736U 19074Z   22128.38270376  .00002059  00000-0  15709-3 0  9997","TIME_SYSTEM":"UTC","BSTAR":"0.00015709000000","OBJECT_TYPE":"PAYLOAD","RA_OF_ASC_NODE":"17.3425","PERIOD":"95.592","MEAN_MOTION_DOT":"0.00002059","CENTER_NAME":"EARTH","GP_ID":"203014056","INCLINATION":"53.0549","RCS_SIZE":"LARGE","MEAN_ELEMENT_THEORY":"SGP4","CLASSIFICATION_TYPE":"U","NORAD_CAT_ID":"44736","SITE":"AFETR","COUNTRY_CODE":"US","APOAPSIS":"548.278","EPOCH":"2022-05-08T09:11:05.604864","FILE":"3435746","REF_FRAME":"TEME","SEMIMAJOR_AXIS":"6925.351","OBJECT_ID":"2019-074Z","OBJECT_NAME":"STARLINK-1031","ECCENTRICITY":"0.00015340","ELEMENT_SET_NO":"999","PERIAPSIS":"546.154","TLE_LINE2":"2 44736  53.0549  17.3425 0001534  60.4898 299.6244 15.06399184137263","REV_AT_EPOCH":"13726"},{"MEAN_ANOMALY":"297.8254","LAUNCH_DATE":"2019-11-11","MEAN_MOTION_DDOT":"0.0000000000000","MEAN_MOTION":"15.06418014","ARG_OF_PERICENTER":"62.2915","EPHEMERIS_TYPE":"0","INCLINATION":"53.0544","GP_ID":"203012804","RCS_SIZE":"LARGE","RA_OF_ASC_NODE":"17.2931","PERIOD":"95.591","MEAN_MOTION_DOT":"0.00009436","CENTER_NAME":"EARTH","OBJECT_TYPE":"PAYLOAD","BSTAR":"0.00065120000000","DECAY_DATE":null,"TLE_LINE1":"1 44737U 19074AA  22128.39376627  .00009436  00000-0  65120-3 0  9993","TIME_SYSTEM":"UTC","SITE":"AFETR","COUNTRY_CODE":"US","NORAD_CAT_ID":"44737","CLASSIFICATION_TYPE":"U","MEAN_ELEMENT_THEORY":"SGP4","TLE_LINE2":"2 44737  53.0544  17.2931 0001779  62.2915 297.8254 15.06418014137266","REV_AT_EPOCH":"13726","OBJECT_NAME":"STARLINK-1032","ECCENTRICITY":"0.00017790","PERIAPSIS":"545.926","ELEMENT_SET_NO":"999","REF_FRAME":"TEME","SEMIMAJOR_AXIS":"6925.293","OBJECT_ID":"2019-074AA","APOAPSIS":"548.390","EPOCH":"2022-05-08T09:27:01.405728","FILE":"3435746"},{"OBJECT_TYPE":"PAYLOAD","BSTAR":"0.00008891900000","DECAY_DATE":null,"TLE_LINE1":"1 44738U 19074AB  22128.37901649  .00001043  00000-0  88919-4 0  9998","TIME_SYSTEM":"UTC","INCLINATION":"53.0564","GP_ID":"203013547","RCS_SIZE":"LARGE","RA_OF_ASC_NODE":"17.3542","PERIOD":"95.592","MEAN_MOTION_DOT":"0.00001043","CENTER_NAME":"EARTH","ARG_OF_PERICENTER":"58.5756","EPHEMERIS_TYPE":"0","MEAN_MOTION_DDOT":"0.0000000000000","LAUNCH_DATE":"2019-11-11","MEAN_ANOMALY":"301.5394","MEAN_MOTION":"15.06399520","REF_FRAME":"TEME","SEMIMAJOR_AXIS":"6925.350","OBJECT_ID":"2019-074AB","APOAPSIS":"548.354","EPOCH":"2022-05-08T09:05:47.024736","FILE":"3435746","TLE_LINE2":"2 44738  53.0564  17.3542 0001645  58.5756 301.5394 15.06399520137258","REV_AT_EPOCH":"13725","OBJECT_NAME":"STARLINK-1033","ECCENTRICITY":"0.00016450","ELEMENT_SET_NO":"999","PERIAPSIS":"546.076","NORAD_CAT_ID":"44738","CLASSIFICATION_TYPE":"U","MEAN_ELEMENT_THEORY":"SGP4","SITE":"AFETR","COUNTRY_CODE":"US"},{"MEAN_MOTION":"15.12908383","LAUNCH_DATE":"2019-11-11","MEAN_MOTION_DDOT":"0.0000000000000","MEAN_ANOMALY":"241.0196","EPHEMERIS_TYPE":"0","ARG_OF_PERICENTER":"119.1002","CENTER_NAME":"EARTH","PERIOD":"95.181","RA_OF_ASC_NODE":"11.1921","MEAN_MOTION_DOT":"0.00021741","RCS_SIZE":"LARGE","INCLINATION":"52.9987","GP_ID":"203013800","TIME_SYSTEM":"UTC","TLE_LINE1":"1 44739U 19074AC  22127.94955151  .00021741  00000-0  12335-2 0  9992","DECAY_DATE":null,"BSTAR":"0.00123350000000","OBJECT_TYPE":"PAYLOAD","COUNTRY_CODE":"US","SITE":"AFETR","MEAN_ELEMENT_THEORY":"SGP4","NORAD_CAT_ID":"44739","CLASSIFICATION_TYPE":"U","ELEMENT_SET_NO":"999","PERIAPSIS":"525.909","ECCENTRICITY":"0.00020690","OBJECT_NAME":"STARLINK-1034","TLE_LINE2":"2 44739  52.9987  11.1921 0002069 119.1002 241.0196 15.12908383137267","REV_AT_EPOCH":"13726","FILE":"3435746","EPOCH":"2022-05-07T22:47:21.250464","APOAPSIS":"528.767","OBJECT_ID":"2019-074AC","SEMIMAJOR_AXIS":"6905.473","REF_FRAME":"TEME"},{"COUNTRY_CODE":"US","SITE":"AFETR","CLASSIFICATION_TYPE":"U","NORAD_CAT_ID":"44740","MEAN_ELEMENT_THEORY":"SGP4","TLE_LINE2":"2 44740  53.0562  16.1099 0001845  64.9975 295.1206 15.06400190137479","REV_AT_EPOCH":"13747","ECCENTRICITY":"0.00018450","OBJECT_NAME":"STARLINK-1035","ELEMENT_SET_NO":"999","PERIAPSIS":"545.935","REF_FRAME":"TEME","OBJECT_ID":"2019-074AD","SEMIMAJOR_AXIS":"6925.348","APOAPSIS":"548.491","EPOCH":"2022-05-08T15:43:51.997152","FILE":"3435886","LAUNCH_DATE":"2019-11-11","MEAN_ANOMALY":"295.1206","MEAN_MOTION_DDOT":"0.0000000000000","MEAN_MOTION":"15.06400190","ARG_OF_PERICENTER":"64.9975","EPHEMERIS_TYPE":"0","RCS_SIZE":"LARGE","GP_ID":"203022210","INCLINATION":"53.0562","RA_OF_ASC_NODE":"16.1099","PERIOD":"95.592","MEAN_MOTION_DOT":"0.00001341","CENTER_NAME":"EARTH","BSTAR":"0.00010894000000","OBJECT_TYPE":"PAYLOAD","DECAY_DATE":null,"TIME_SYSTEM":"UTC","TLE_LINE1":"1 44740U 19074AD  22128.65546293  .00001341  00000-0  10894-3 0  9999"},{"CENTER_NAME":"EARTH","PERIOD":"95.592","RA_OF_ASC_NODE":"16.0515","MEAN_MOTION_DOT":"0.00002638","GP_ID":"203022709","INCLINATION":"53.0567","RCS_SIZE":"LARGE","TLE_LINE1":"1 44741U 19074AE  22128.66652719  .00002638  00000-0  19592-3 0  9996","TIME_SYSTEM":"UTC","DECAY_DATE":null,"OBJECT_TYPE":"PAYLOAD","BSTAR":"0.00019592000000","MEAN_MOTION":"15.06405076","MEAN_MOTION_DDOT":"0.0000000000000","LAUNCH_DATE":"2019-11-11","MEAN_ANOMALY":"290.0157","EPHEMERIS_TYPE":"0","ARG_OF_PERICENTER":"70.1001","PERIAPSIS":"546.107","ELEMENT_SET_NO":"999","OBJECT_NAME":"STARLINK-1036","ECCENTRICITY":"0.00015750","REV_AT_EPOCH":"13747","TLE_LINE2":"2 44741  53.0567  16.0515 0001575  70.1001 290.0157 15.06405076137473","FILE":"3435888","APOAPSIS":"548.289","EPOCH":"2022-05-08T15:59:47.949216","SEMIMAJOR_AXIS":"6925.333","OBJECT_ID":"2019-074AE","REF_FRAME":"TEME","SITE":"AFETR","COUNTRY_CODE":"US","MEAN_ELEMENT_THEORY":"SGP4","NORAD_CAT_ID":"44741","CLASSIFICATION_TYPE":"U"}];
